HTV-X1                  
1 66174U 25241A   26087.49651989  .00002445  00000+0  88582-4 0  9991
2 66174  51.6386 342.4427 0007307 244.0862 115.9366 15.32429125 23824
SZ-21 MODULE            
1 66515U 25246C   26087.27448309  .00043062  00000+0  34891-3 0  9994
2 66515  41.4743  88.8326 0001568 210.3682 149.7069 15.69967006 20990
SHENZHOU-22             
1 66645U 25272A   26087.39534363  .00017812  00000+0  20488-3 0  9997
2 66645  41.4669  94.2614 0004058  45.3760 314.7410 15.61580461280677
SOYUZ-MS 28             
1 66664U 25275A   26087.48736240  .00011758  00000+0  22419-3 0  9998
2 66664  51.6344 339.4313 0006231 242.6596 117.3758 15.48607800559320
DUPLEX                  
1 66906U 98067XS  26087.26576529  .00034002  00000+0  45879-3 0  9996
2 66906  51.6303 336.4539 0002900 197.4506 162.6387 15.57460448 18021
ISS OBJECT XT           
1 66907U 98067XT  26087.07657550  .00217682  00000+0  13412-2 0  9994
2 66907  51.6249 331.4049 0005907 198.8815 161.1966 15.75968383 18073
ISS OBJECT XU           
1 66908U 98067XU  26087.07290118  .00225038  00000+0  13700-2 0  9992
2 66908  51.6247 331.3755 0006132 198.7840 161.2934 15.76216894 18073
SILVERSAT               
1 66909U 98067XV  26087.09242312  .00323857  00000+0  15458-2 0  9998
2 66909  51.6219 329.9939 0006927 204.2844 155.7832 15.81335789 18097
ISS OBJECT XW           
1 66910U 98067XW  26087.40033677  .00204122  00000+0  13316-2 0  9991
2 66910  51.6241 329.8088 0006323 198.6394 161.4375 15.74694889 18125
ISS OBJECT XX           
1 66911U 98067XX  26087.03713223  .00487256  00000+0  16862-2 0  9993
2 66911  51.6193 328.8401 0008692 208.4454 151.6078 15.87650980 18093
ISS OBJECT XY           
1 66912U 98067XY  26087.09351581  .00110653  00000+0  99368-3 0  9992
2 66912  51.6270 333.7912 0004310 195.7948 164.2915 15.67410233 18038
KNACKSAT-2              
1 67683U 98067XZ  26087.26490943  .00044943  00000+0  70041-3 0  9998
2 67683  51.6323 339.4481 0009955 253.0442 106.9457 15.53355433  7671
